{"type": "FeatureCollection", "features": [ {"type": "Feature", "properties": {"norad_id": 66499, "name": "STARLINK-35816", "group": "last-30-days", "lat": -20.452831716132046, "lon": 124.4647821259107, "alt_km": 416.70564713298427, "timestamp": "2025-12-08T19:31:47.636135+00:00", "meta": {"OBJECT_NAME": "STARLINK-35816", "OBJECT_ID": "2025-263Q", "EPOCH": "2025-12-08T06:00:02.999808", "MEAN_MOTION": 15.50569354, "ECCENTRICITY": 0.00014695, "INCLINATION": 43.0003, "RA_OF_ASC_NODE": 151.3545, "ARG_OF_PERICENTER": 264.2843, "MEAN_ANOMALY": 154.5544, "EPHEMERIS_TYPE": 0, "CLASSIFICATION_TYPE": "U", "NORAD_CAT_ID": 66499, "ELEMENT_SET_NO": 999, "REV_AT_EPOCH": 491, "BSTAR": -0.00068617863, "MEAN_MOTION_DOT": -0.00040375, "MEAN_MOTION_DDOT": 0}, "tle": {"line1": "1 66499U 25263Q   25342.25003472 -.00040375  00000+0 -68618-3 0  9993", "line2": "2 66499  43.0003 151.3545 0001469 264.2843 154.5544 15.50569354  4914"}}, "geometry": {"type": "Point", "coordinates": [124.4647821259107, -20.452831716132046]}}, {"type": "Feature", "properties": {"norad_id": 66500, "name": "STARLINK-35894", "group": "last-30-days", "lat": -41.74153619941934, "lon": 74.93416851366273, "alt_km": 417.76238976429613, "timestamp": "2025-12-08T19:31:47.636145+00:00", "meta": {"OBJECT_NAME": "STARLINK-35894", "OBJECT_ID": "2025-263R", "EPOCH": "2025-12-08T06:00:02.999808", "MEAN_MOTION": 15.50584691, "ECCENTRICITY": 0.00011139, "INCLINATION": 43.0005, "RA_OF_ASC_NODE": 151.4697, "ARG_OF_PERICENTER": 286.2989, "MEAN_ANOMALY": 85.7461, "EPHEMERIS_TYPE": 0, "CLASSIFICATION_TYPE": "U", "NORAD_CAT_ID": 66500, "ELEMENT_SET_NO": 999, "REV_AT_EPOCH": 491, "BSTAR": -0.00092491296, "MEAN_MOTION_DOT": -0.00054237, "MEAN_MOTION_DDOT": 0}, "tle": {"line1": "1 66500U 25263R   25342.25003472 -.00054237  00000+0 -92491-3 0  9994", "line2": "2 66500  43.0005 151.4697 0001113 286.2989  85.7461 15.50584691  4913"}}, "geometry": {"type": "Point", "coordinates": [74.93416851366273, -41.74153619941934]}}, {"type": "Feature", "properties": {"norad_id": 66501, "name": "STARLINK-35897", "group": "last-30-days", "lat": -19.241412552190145, "lon": 126.05422387034164, "alt_km": 416.0190967060498, "timestamp": "2025-12-08T19:31:47.636155+00:00", "meta": {"OBJECT_NAME": "STARLINK-35897", "OBJECT_ID": "2025-263S", "EPOCH": "2025-12-08T06:00:02.999808", "MEAN_MOTION": 15.50501243, "ECCENTRICITY": 0.0001716, "INCLINATION": 43.0005, "RA_OF_ASC_NODE": 151.3498, "ARG_OF_PERICENTER": 283.447, "MEAN_ANOMALY": 137.3125, "EPHEMERIS_TYPE": 0, "CLASSIFICATION_TYPE": "U", "NORAD_CAT_ID": 66501, "ELEMENT_SET_NO": 999, "REV_AT_EPOCH": 491, "BSTAR": 0.0015205138, "MEAN_MOTION_DOT": 0.00089639, "MEAN_MOTION_DDOT": 0}, "tle": {"line1": "1 66501U 25263S   25342.25003472  .00089639  00000+0  15205-2 0  9994", "line2": "2 66501  43.0005 151.3498 0001716 283.4470 137.3125 15.50501243  4918"}}, "geometry": {"type": "Point", "coordinates": [126.05422387034164, -19.241412552190145]}}, {"type": "Feature", "properties": {"norad_id": 66502, "name": "STARLINK-35922", "group": "last-30-days", "lat": -15.559473949471638, "lon": 130.6508359914002, "alt_km": 416.3569195562386, "timestamp": "2025-12-08T19:31:47.636163+00:00", "meta": {"OBJECT_NAME": "STARLINK-35922", "OBJECT_ID": "2025-263T", "EPOCH": "2025-12-08T06:00:02.999808", "MEAN_MOTION": 15.50569723, "ECCENTRICITY": 0.00014951, "INCLINATION": 43.0003, "RA_OF_ASC_NODE": 151.3345, "ARG_OF_PERICENTER": 265.3258, "MEAN_ANOMALY": 161.1803, "EPHEMERIS_TYPE": 0, "CLASSIFICATION_TYPE": "U", "NORAD_CAT_ID": 66502, "ELEMENT_SET_NO": 999, "REV_AT_EPOCH": 491, "BSTAR": -0.00068302425, "MEAN_MOTION_DOT": -0.00040193, "MEAN_MOTION_DDOT": 0}, "tle": {"line1": "1 66502U 25263T   25342.25003472 -.00040193  00000+0 -68302-3 0  9996", "line2": "2 66502  43.0003 151.3345 0001495 265.3258 161.1803 15.50569723  4910"}}, "geometry": {"type": "Point", "coordinates": [130.6508359914002, -15.559473949471638]}}, {"type": "Feature", "properties": {"norad_id": 66503, "name": "STARLINK-35917", "group": "last-30-days", "lat": -13.049110109444467, "lon": 133.62587765748032, "alt_km": 415.6102990314612, "timestamp": "2025-12-08T19:31:47.636172+00:00", "meta": {"OBJECT_NAME": "STARLINK-35917", "OBJECT_ID": "2025-263U", "EPOCH": "2025-12-08T06:00:02.999808", "MEAN_MOTION": 15.50497392, "ECCENTRICITY": 0.00017116, "INCLINATION": 43.0003, "RA_OF_ASC_NODE": 151.3255, "ARG_OF_PERICENTER": 283.5395, "MEAN_ANOMALY": 146.8054, "EPHEMERIS_TYPE": 0, "CLASSIFICATION_TYPE": "U", "NORAD_CAT_ID": 66503, "ELEMENT_SET_NO": 999, "REV_AT_EPOCH": 491, "BSTAR": 0.0013950628, "MEAN_MOTION_DOT": 0.00082124, "MEAN_MOTION_DDOT": 0}, "tle": {"line1": "1 66503U 25263U   25342.25003472  .00082124  00000+0  13951-2 0  9994", "line2": "2 66503  43.0003 151.3255 0001711 283.5395 146.8054 15.50497392  4916"}}, "geometry": {"type": "Point", "coordinates": [133.62587765748032, -13.049110109444467]}}, {"type": "Feature", "properties": {"norad_id": 66504, "name": "STARLINK-35916", "group": "last-30-days", "lat": -15.290042897508933, "lon": -13.688346559947723, "alt_km": 445.2810718214969, "timestamp": "2025-12-08T19:31:47.636181+00:00", "meta": {"OBJECT_NAME": "STARLINK-35916", "OBJECT_ID": "2025-263V", "EPOCH": "2025-12-08T06:00:02.999808", "MEAN_MOTION": 15.40653244, "ECCENTRICITY": 0.00015196, "INCLINATION": 43.0007, "RA_OF_ASC_NODE": 152.501, "ARG_OF_PERICENTER": 270.1679, "MEAN_ANOMALY": 42.2385, "EPHEMERIS_TYPE": 0, "CLASSIFICATION_TYPE": "U", "NORAD_CAT_ID": 66504, "ELEMENT_SET_NO": 999, "REV_AT_EPOCH": 491, "BSTAR": 0.00062372333, "MEAN_MOTION_DOT": 0.00025799, "MEAN_MOTION_DDOT": 0}, "tle": {"line1": "1 66504U 25263V   25342.25003472  .00025799  00000+0  62372-3 0  9992", "line2": "2 66504  43.0007 152.5010 0001519 270.1679  42.2385 15.40653244  4911"}}, "geometry": {"type": "Point", "coordinates": [-13.688346559947723, -15.290042897508933]}}, {"type": "Feature", "properties": {"norad_id": 66505, "name": "STARLINK-34766", "group": "last-30-days", "lat": -18.02662741723755, "lon": 127.60630189561283, "alt_km": 415.9351088360172, "timestamp": "2025-12-08T19:31:47.636191+00:00", "meta": {"OBJECT_NAME": "STARLINK-34766", "OBJECT_ID": "2025-263W", "EPOCH": "2025-12-08T06:00:02.999808", "MEAN_MOTION": 15.50499366, "ECCENTRICITY": 0.00017948, "INCLINATION": 43.0004, "RA_OF_ASC_NODE": 151.3444, "ARG_OF_PERICENTER": 282.0147, "MEAN_ANOMALY": 140.6623, "EPHEMERIS_TYPE": 0, "CLASSIFICATION_TYPE": "U", "NORAD_CAT_ID": 66505, "ELEMENT_SET_NO": 999, "REV_AT_EPOCH": 491, "BSTAR": 0.0014836788, "MEAN_MOTION_DOT": 0.00087429, "MEAN_MOTION_DDOT": 0}, "tle": {"line1": "1 66505U 25263W   25342.25003472  .00087429  00000+0  14837-2 0  9993", "line2": "2 66505  43.0004 151.3444 0001794 282.0147 140.6623 15.50499366  4916"}}, "geometry": {"type": "Point", "coordinates": [127.60630189561283, -18.02662741723755]}}, {"type": "Feature", "properties": {"norad_id": 66506, "name": "STARLINK-34765", "group": "last-30-days", "lat": -16.800561187363826, "lon": 129.13716248735759, "alt_km": 415.8478824552203, "timestamp": "2025-12-08T19:31:47.636199+00:00", "meta": {"OBJECT_NAME": "STARLINK-34765", "OBJECT_ID": "2025-263X", "EPOCH": "2025-12-08T06:00:02.999808", "MEAN_MOTION": 15.50498593, "ECCENTRICITY": 0.00017875, "INCLINATION": 43.0004, "RA_OF_ASC_NODE": 151.3404, "ARG_OF_PERICENTER": 283.1972, "MEAN_ANOMALY": 141.3955, "EPHEMERIS_TYPE": 0, "CLASSIFICATION_TYPE": "U", "NORAD_CAT_ID": 66506, "ELEMENT_SET_NO": 999, "REV_AT_EPOCH": 491, "BSTAR": 0.0014364698, "MEAN_MOTION_DOT": 0.00084603, "MEAN_MOTION_DDOT": 0}, "tle": {"line1": "1 66506U 25263X   25342.25003472  .00084603  00000+0  14365-2 0  9991", "line2": "2 66506  43.0004 151.3404 0001787 283.1972 141.3955 15.50498593  4910"}}, "geometry": {"type": "Point", "coordinates": [129.13716248735759, -16.800561187363826]}}, {"type": "Feature", "properties": {"norad_id": 66507, "name": "STARLINK-34767", "group": "last-30-days", "lat": -14.308592221169816, "lon": 132.14672875467718, "alt_km": 416.27280998997776, "timestamp": "2025-12-08T19:31:47.636208+00:00", "meta": {"OBJECT_NAME": "STARLINK-34767", "OBJECT_ID": "2025-263Y", "EPOCH": "2025-12-08T06:00:02.999808", "MEAN_MOTION": 15.50569839, "ECCENTRICITY": 0.00014153, "INCLINATION": 43.0005, "RA_OF_ASC_NODE": 151.3295, "ARG_OF_PERICENTER": 266.172, "MEAN_ANOMALY": 162.2512, "EPHEMERIS_TYPE": 0, "CLASSIFICATION_TYPE": "U", "NORAD_CAT_ID": 66507, "ELEMENT_SET_NO": 999, "REV_AT_EPOCH": 491, "BSTAR": -0.00069080488, "MEAN_MOTION_DOT": -0.00040644, "MEAN_MOTION_DDOT": 0}, "tle": {"line1": "1 66507U 25263Y   25342.25003472 -.00040644  00000+0 -69080-3 0  9996", "line2": "2 66507  43.0005 151.3295 0001415 266.1720 162.2512 15.50569839  4913"}}, "geometry": {"type": "Point", "coordinates": [132.14672875467718, -14.308592221169816]}}, {"type": "Feature", "properties": {"norad_id": 66508, "name": "STARLINK-35608", "group": "last-30-days", "lat": -10.503506295349794, "lon": 136.54221641927666, "alt_km": 415.3568326141294, "timestamp": "2025-12-08T19:31:47.636221+00:00", "meta": {"OBJECT_NAME": "STARLINK-35608", "OBJECT_ID": "2025-263Z", "EPOCH": "2025-12-08T06:00:02.999808", "MEAN_MOTION": 15.50499931, "ECCENTRICITY": 0.00017539, "INCLINATION": 43.0004, "RA_OF_ASC_NODE": 151.3162, "ARG_OF_PERICENTER": 284.9952, "MEAN_ANOMALY": 149.1762, "EPHEMERIS_TYPE": 0, "CLASSIFICATION_TYPE": "U", "NORAD_CAT_ID": 66508, "ELEMENT_SET_NO": 999, "REV_AT_EPOCH": 491, "BSTAR": 0.001402185, "MEAN_MOTION_DOT": 0.00082558, "MEAN_MOTION_DDOT": 0}, "tle": {"line1": "1 66508U 25263Z   25342.25003472  .00082558  00000+0  14022-2 0  9990", "line2": "2 66508  43.0004 151.3162 0001753 284.9952 149.1762 15.50499931  4912"}}, "geometry": {"type": "Point", "coordinates": [136.54221641927666, -10.503506295349794]}}]}